NORAD_CAT_ID,OBJECT_NAME,OBJECT_TYPE,EPOCH,MEAN_MOTION,ECCENTRICITY,INCLINATION,RA_OF_ASC_NODE,ARG_OF_PERICENTER,MEAN_ANOMALY,BSTAR,MEAN_MOTION_DOT,MEAN_MOTION_DDOT,TLE_LINE0,TLE_LINE1,TLE_LINE2,SEMIMAJOR_AXIS,PERIOD,APOGEE,PERIGEE,DECAYED
49413.0,STARLINK-3157,PAYLOAD,2022-05-29 06:00:02,15.08828285,0.0002174,53.215,296.1655,29.4941,243.4422,0.00053556,8.243e-05,0.0,0 STARLINK-3157,1 49413U 21104F   22149.25002315  .00008243  00000-0  53556-3 0  9999,2 49413  53.2150 296.1655 0002174  29.4941 243.4422 15.08828285 31468,6917.916,95.438,541.285,538.2769999999998,0.0
49413.0,STARLINK-3157,PAYLOAD,2022-05-29 12:44:40,15.08845773,0.0002327,53.2156,294.9036,31.0693,329.0436,0.00020475,2.972e-05,0.0,0 STARLINK-3157,1 49413U 21104F   22149.53102660  .00002972  00000-0  20475-3 0  9991,2 49413  53.2156 294.9036 0002327  31.0693 329.0436 15.08845773 30417,6917.863,95.437,541.3380000000002,538.118,0.0
49413.0,STARLINK-3157,PAYLOAD,2022-05-29 19:06:13,15.08843005,0.0002369,53.2157,293.7145,30.435,329.67800000000005,0.00013794,1.908e-05,0.0,0 STARLINK-3157,1 49413U 21104F   22149.79598777  .00001908  00000-0  13794-3 0  9991,2 49413  53.2157 293.7145 0002369  30.4350 329.6780 15.08843005 30453,6917.871,95.437,541.375,538.097,0.0
49413.0,STARLINK-3157,PAYLOAD,2022-05-29 22:00:00,15.08797723,0.0002393,53.215,293.1745,24.4637,271.5821,6.6671e-05,7.72e-06,0.0,0 STARLINK-3157,1 49413U 21104F   22149.91667824  .00000772  00000-0  66671-4 0  9996,2 49413  53.2150 293.1745 0002393  24.4637 271.5821 15.08797723 31563,6918.01,95.44,541.53,538.219,0.0
49413.0,STARLINK-3157,PAYLOAD,2022-05-30 12:35:28,15.08824652,0.0002363,53.2154,290.4434,30.8933,329.2198,-0.00019422,-3.377e-05,0.0,0 STARLINK-3157,1 49413U 21104F   22150.52463789 -.00003377  00000-0 -19422-3 0  9996,2 49413  53.2154 290.4434 0002363  30.8933 329.2198 15.08824652 30568,6917.927,95.439,541.427,538.158,0.0
49413.0,STARLINK-3157,PAYLOAD,2022-05-30 14:00:01,15.08846225,0.0002381,53.2157,290.181,29.5055,289.6533,-0.00092302,-0.00014951,0.0,0 STARLINK-3157,1 49413U 21104F   22150.58334491 -.00014951  00000-0 -92302-3 0  9997,2 49413  53.2157 290.1810 0002381  29.5055 289.6533 15.08846225 31660,6917.861,95.437,541.374,538.0790000000002,0.0
49413.0,STARLINK-3157,PAYLOAD,2022-05-30 20:32:24,15.08833278,0.0002252,53.2161,288.957,29.8044,330.3076,0.00040785,6.208e-05,0.0,0 STARLINK-3157,1 49413U 21104F   22150.85583925  .00006208  00000-0  40785-3 0  9997,2 49413  53.2161 288.9570 0002252  29.8044 330.3076 15.08833278 30615,6917.901,95.438,541.3240000000002,538.2080000000002,0.0
49413.0,STARLINK-3157,PAYLOAD,2022-05-31 06:00:02,15.08833337,0.0002301,53.216,287.187,31.6061,310.8109,0.0013815,0.00021763,0.0,0 STARLINK-3157,1 49413U 21104F   22151.25002315  .00021763  00000-0  13815-2 0  9997,2 49413  53.2160 287.1870 0002301  31.6061 310.8109 15.08833337  1303,6917.901,95.438,541.3580000000002,538.174,0.0
49413.0,STARLINK-3157,PAYLOAD,2022-05-31 12:26:15,15.08851241,0.0002394,53.2164,285.9834,34.0347,326.0799,0.0007957999999999,0.00012404,0.0,0 STARLINK-3157,1 49413U 21104F   22151.51823811  .00012404  00000-0  79580-3 0  9992,2 49413  53.2164 285.9834 0002394  34.0347 326.0799 15.08851241 31805,6917.846,95.437,541.367,538.055,0.0
49413.0,STARLINK-3157,PAYLOAD,2022-05-31 22:00:00,15.08844198,0.0002603,53.216,284.1959,30.6403,334.9056,0.00044673,6.829999999999999e-05,0.0,0 STARLINK-3157,1 49413U 21104F   22151.91667824  .00006830  00000-0  44673-3 0  9997,2 49413  53.2160 284.1959 0002603  30.6403 334.9056 15.08844198 31861,6917.868,95.437,541.533,537.932,0.0
49413.0,STARLINK-3157,PAYLOAD,2022-06-01 20:00:01,15.08821778,0.0002566999999999,53.2161,280.0814,29.4356,278.0338,0.0022642,0.00035914,0.0,0 STARLINK-3157,1 49413U 21104F   22152.83334491  .00035914  00000-0  22642-2 0  9996,2 49413  53.2161 280.0814 0002567  29.4356 278.0338 15.08821778  1305,6917.936,95.439,541.577,538.025,0.0
49413.0,STARLINK-3157,PAYLOAD,2022-06-02 20:04:44,15.08845789,0.0002553,53.216,275.5758,30.3482,329.7657,7.2581e-05,8.67e-06,0.0,0 STARLINK-3157,1 49413U 21104F   22153.83663128  .00000867  00000-0  72581-4 0  9997,2 49413  53.2160 275.5758 0002553  30.3482 329.7657 15.08845789 31068,6917.863,95.437,541.494,537.962,0.0
49413.0,STARLINK-3157,PAYLOAD,2022-06-03 00:50:54,15.08835343,0.0002691,53.2162,274.682,40.0056,320.1134,-2.1348000000000006e-05,-6.28e-06,0.0,0 STARLINK-3157,1 49413U 21104F   22154.03535839 -.00000628  00000-0 -21348-4 0  9999,2 49413  53.2162 274.6820 0002691  40.0056 320.1134 15.08835343 32182,6917.895,95.438,541.621,537.898,0.0
49413.0,STARLINK-3157,PAYLOAD,2022-06-03 08:47:50,15.08835751,0.0002696,53.2162,273.1951,35.6317,324.4854,4.4616e-05,4.22e-06,0.0,0 STARLINK-3157,1 49413U 21104F   22154.36655733  .00000422  00000-0  44616-4 0  9994,2 49413  53.2162 273.1951 0002696  35.6317 324.4854 15.08835751 31140,6917.893,95.438,541.623,537.893,0.0
49413.0,STARLINK-3157,PAYLOAD,2022-06-03 18:20:09,15.08838178,0.0002815,53.2174,271.4106,33.6998,326.4173,7.653199999999999e-05,9.3e-06,0.0,0 STARLINK-3157,1 49413U 21104F   22154.76399718  .00000930  00000-0  76532-4 0  9992,2 49413  53.2174 271.4106 0002815  33.6998 326.4173 15.08838178 31201,6917.886,95.438,541.698,537.804,0.0
49413.0,STARLINK-3157,PAYLOAD,2022-06-04 11:49:23,15.08845733,0.0002468,53.2164,268.1431,33.9882,326.1268,0.00014366,1.999e-05,0.0,0 STARLINK-3157,1 49413U 21104F   22155.49263311  .00001999  00000-0  14366-3 0  9994,2 49413  53.2164 268.1431 0002468  33.9882 326.1268 15.08845733 32403,6917.863,95.437,541.435,538.021,0.0
49413.0,STARLINK-3157,PAYLOAD,2022-06-05 22:00:00,15.0885788,0.0002471,53.2142,261.7505,30.5038,148.9767,-0.0016124,-0.00025872,0.0,0 STARLINK-3157,1 49413U 21104F   22156.91667824 -.00025872  00000-0 -16124-2 0  9990,2 49413  53.2142 261.7505 0002471  30.5038 148.9767 15.08857880 32624,6917.826,95.436,541.4,537.981,0.0
49413.0,STARLINK-3157,PAYLOAD,2022-06-06 14:00:01,15.08846173,0.0002536,53.2144,258.7581,30.7084,171.9904,-0.0020027,-0.00032027,0.0,0 STARLINK-3157,1 49413U 21104F   22157.58334491 -.00032027  00000-0 -20027-2 0  9992,2 49413  53.2144 258.7581 0002536  30.7084 171.9904 15.08846173 32724,6917.861999999999,95.437,541.481,537.972,0.0
49413.0,STARLINK-3157,PAYLOAD,2022-06-06 17:52:29,15.08855228,0.0002499,53.2167,258.0316,35.3651,324.7506,0.0001304,1.788e-05,0.0,0 STARLINK-3157,1 49413U 21104F   22157.74478317  .00001788  00000-0  13040-3 0  9992,2 49413  53.2167 258.0316 0002499  35.3651 324.7506 15.08855228 32746,6917.834,95.437,541.428,537.97,0.0
49413.0,STARLINK-3157,PAYLOAD,2022-06-07 00:14:02,15.08841188,0.0002523,53.2155,256.842,35.0993,325.0165,-9.6836e-06,-4.43e-06,0.0,0 STARLINK-3157,1 49413U 21104F   22158.00975140 -.00000443  00000-0 -96836-5 0  9993,2 49413  53.2155 256.8420 0002523  35.0993 325.0165 15.08841188 32788,6917.877,95.437,541.487,537.996,0.0
49413.0,STARLINK-3157,PAYLOAD,2022-06-07 12:57:07,15.08846679,0.0002449,53.2153,254.4634,33.2747,326.8399,0.00017778,2.543e-05,0.0,0 STARLINK-3157,1 49413U 21104F   22158.53966749  .00002543  00000-0  17778-3 0  9993,2 49413  53.2153 254.4634 0002449  33.2747 326.8399 15.08846679 31777,6917.86,95.437,541.419,538.031,0.0
49413.0,STARLINK-3157,PAYLOAD,2022-06-07 17:43:16,15.08850954,0.0002479,53.2155,253.5714,33.2702,326.8445,0.00019187,2.768e-05,0.0,0 STARLINK-3157,1 49413U 21104F   22158.73838444  .00002768  00000-0  19187-3 0  9990,2 49413  53.2155 253.5714 0002479  33.2702 326.8445 15.08850954 32899,6917.847,95.437,541.427,537.997,0.0
49413.0,STARLINK-3157,PAYLOAD,2022-06-08 12:47:53,15.08848193,0.0002516,53.2155,250.0024,35.8452,324.2708,6.162399999999999e-05,6.93e-06,0.0,0 STARLINK-3157,1 49413U 21104F   22159.53326227  .00000693  00000-0  61624-4 0  9999,2 49413  53.2155 250.0024 0002516  35.8452 324.2708 15.08848193 33018,6917.855,95.437,541.461,537.98,0.0
49413.0,STARLINK-3157,PAYLOAD,2022-06-08 15:58:40,15.08846991,0.0002524,53.2156,249.4079,34.8137,325.302,3.1378000000000003e-05,2.11e-06,0.0,0 STARLINK-3157,1 49413U 21104F   22159.66574224  .00000211  00000-0  31378-4 0  9994,2 49413  53.2156 249.4079 0002524  34.8137 325.3020 15.08846991 31942,6917.859,95.437,541.47,537.9780000000002,0.0
49413.0,STARLINK-3157,PAYLOAD,2022-06-09 12:38:42,15.08823864,0.0002457,53.2166,245.5425,32.7928,327.3217,-9.758e-05,-1.84e-05,0.0,0 STARLINK-3157,1 49413U 21104F   22160.52688211 -.00001840  00000-0 -97580-4 0  9991,2 49413  53.2166 245.5425 0002457  32.7928 327.3217 15.08823864 32074,6917.93,95.439,541.494,538.095,0.0
49413.0,STARLINK-3157,PAYLOAD,2022-06-09 17:24:52,15.08824245,0.0002476,53.2163,244.6503,31.3881,328.7259,-0.00014204,-2.547e-05,0.0,0 STARLINK-3157,1 49413U 21104F   22160.72560443 -.00002547  00000-0 -14204-3 0  9995,2 49413  53.2163 244.6503 0002476  31.3881 328.7259 15.08824245 33191,6917.929,95.439,541.506,538.081,0.0
49413.0,STARLINK-3157,PAYLOAD,2022-06-10 12:29:29,15.08834075,0.0002444,53.2158,241.0818,26.1182,333.9933,-9.7854e-05,-1.845e-05,0.0,0 STARLINK-3157,1 49413U 21104F   22161.52048336 -.00001845  00000-0 -97854-4 0  9999,2 49413  53.2158 241.0818 0002444  26.1182 333.9933 15.08834075 33319,6917.898,95.438,541.4540000000002,538.073,0.0
49413.0,STARLINK-3157,PAYLOAD,2022-06-10 17:15:39,15.08832228,0.0002394,53.2158,240.1896,29.8662,330.2466,-3.7508e-05,-8.85e-06,0.0,0 STARLINK-3157,1 49413U 21104F   22161.71920392 -.00000885  00000-0 -37508-4 0  9994,2 49413  53.2158 240.1896 0002394  29.8662 330.2466 15.08832228 32253,6917.904,95.438,541.425,538.113,0.0
49413.0,STARLINK-3157,PAYLOAD,2022-06-11 15:31:03,15.08830892,0.0002456,53.2157,236.0265,29.1035,331.0093,0.00021485,3.132e-05,0.0,0 STARLINK-3157,1 49413U 21104F   22162.64656696  .00003132  00000-0  21485-3 0  9992,2 49413  53.2157 236.0265 0002456  29.1035 331.0093 15.08830892 33488,6917.908,95.438,541.472,538.0740000000002,0.0
